{
  "_maxGapMeters": 0,
  "type": "FeatureCollection",
  "features": [
    {
      "type": "Feature",
      "properties": {
        "id": "lane-1",
        "highway": "cycleway",
        "name": "Lane A–C through B",
        "_nodeStart": "A",
        "_nodeEnd": "C"
      },
      "geometry": {
        "type": "LineString",
        "coordinates": [
          [0.00000, 0.00000],
          [0.00100, 0.00000],
          [0.00200, 0.00000]
        ]
      }
    },
    {
      "type": "Feature",
      "properties": {
        "id": "lane-2",
        "highway": "cycleway",
        "name": "Lane B–D",
        "_nodeStart": "B",
        "_nodeEnd": "D"
      },
      "geometry": {
        "type": "LineString",
        "coordinates": [
          [0.00100, 0.00000],
          [0.00100, 0.00100]
        ]
      }
    }
  ]
}
